TYVAK-182A              
1 48271U 21034D   26068.71131789  .00007163  00000+0  50673-3 0  9991
2 48271  97.5843 129.3711 0004862 316.5650  43.5193 15.05150420264864
STARLINK-34705          
1 64932U 25158A   26068.62949679  .00003556  00000+0  25057-3 0  9999
2 64932  97.6031 293.9692 0002170  66.8900 293.2555 15.05649645 35342
